0 IRIDIUM 33 DEB
1 35924U 97051UH  13281.99264002  .00364993  00000-0  24555-1 0  3004
2 35924 086.3949 120.0440 0008580 095.0040 265.2174 15.04857813221031
0 IRIDIUM 33 DEB
1 35924U 97051UH  13283.25569687  .00325468  00000-0  21582-1 0  3014
2 35924 086.3953 119.4545 0008506 089.4851 270.7358 15.05609115221226
0 IRIDIUM 33 DEB
1 35924U 97051UH  13283.98668929  .00281586  00000-0  18618-1 0  3022
2 35924 086.3922 119.1125 0008210 088.9067 271.3109 15.05949710221339
0 IRIDIUM 33 DEB
1 35924U 97051UH  13285.24895776  .00247078  00000-0  16177-1 0  3032
2 35924 086.3954 118.5226 0008486 079.3898 280.8293 15.06494301221522
0 IRIDIUM 33 DEB
1 35924U 97051UH  13285.78030095  .00265009  00000-0  17198-1 0  3045
2 35924 086.3943 118.2717 0008636 075.7244 284.4950 15.06729899221606
0 IRIDIUM 33 DEB
1 35924U 97051UH  13287.83843811  .00405623  00000-0  25111-1 0  3054
2 35924 086.3970 117.3113 0009209 061.6843 298.5321 15.07745769221919
0 IRIDIUM 33 DEB
1 35924U 97051UH  13287.97116455  .00493601  00000-0  30418-1 0  3066
2 35924 086.3935 117.2447 0009264 061.4248 298.7920 15.07842539221939
0 IRIDIUM 33 DEB
1 35924U 97051UH  13288.50198243  .00471519  00000-0  28794-1 0  3070
2 35924 086.3937 116.9981 0008902 058.0696 302.1405 15.08278223222019
0 IRIDIUM 33 DEB
1 35924U 97051UH  13288.83367124  .00416719  00000-0  25231-1 0  3087
2 35924 086.3936 116.8418 0009103 056.1364 304.0737 15.08510497222063
0 IRIDIUM 33 DEB
1 35924U 97051UH  13289.49691840  .00421799  00000-0  25235-1 0  3094
2 35924 086.3938 116.5302 0009365 051.8999 308.3081 15.08924061222166
0 IRIDIUM 33 DEB
1 35924U 97051UH  13289.76216254  .00460569  00000-0  27304-1 0  3105
2 35924 086.3933 116.4044 0009669 049.3059 310.9016 15.09058937222202
0 IRIDIUM 33 DEB
1 35924U 97051UH  13289.82847093  .00377879  00000-0  22633-1 0  3115
2 35924 086.3939 116.3744 0009499 050.1325 310.0746 15.09107896222212
0 IRIDIUM 33 DEB
1 35924U 97051UH  13290.75659031  .00456979  00000-0  26629-1 0  3121
2 35924 086.3925 115.9356 0009786 043.4595 316.7412 15.09709396222355
0 IRIDIUM 33 DEB
1 35924U 97051UH  13290.82287277  .00365282  00000-0  21507-1 0  3135
2 35924 086.3938 115.9068 0009840 043.1617 317.0390 15.09799347222367
0 IRIDIUM 33 DEB
1 35924U 97051UH  13291.48555650  .00386079  00000-0  22412-1 0  3145
2 35924 086.3922 115.5918 0010519 038.8830 321.3162 15.10207429222466
0 IRIDIUM 33 DEB
1 35924U 97051UH  13291.94932442  .00343258  00000-0  19870-1 0  3151
2 35924 086.3920 115.3730 0010733 035.6372 324.5580 15.10526771222539
0 IRIDIUM 33 DEB
1 35924U 97051UH  13292.81035900  .00405122  00000-0  22897-1 0  3164
2 35924 086.3914 114.9661 0011495 030.8563 329.3348 15.11080042222661
0 IRIDIUM 33 DEB
1 35924U 97051UH  13292.94279892  .00356050  00000-0  20202-1 0  3172
2 35924 086.3915 114.9035 0011759 030.2464 329.9451 15.11184105222682
0 IRIDIUM 33 DEB
1 35924U 97051UH  13293.47247412  .00420380  00000-0  23417-1 0  3184
2 35924 086.3912 114.6532 0011959 028.0642 332.1238 15.11527530222764
0 IRIDIUM 33 DEB
1 35924U 97051UH  13293.80345615  .00430440  00000-0  23820-1 0  3192
2 35924 086.3915 114.4964 0011902 027.7575 332.4296 15.11716367222814
0 IRIDIUM 33 DEB
1 35924U 97051UH  13293.93583811  .00410903  00000-0  22728-1 0  3208
2 35924 086.3914 114.4337 0012194 027.0137 333.1733 15.11829752222837
0 IRIDIUM 33 DEB
1 35924U 97051UH  13295.25921219  .00498664  00000-0  26884-1 0  3211
2 35924 086.3912 113.8080 0012883 020.6884 339.4874 15.12687107223031
0 IRIDIUM 33 DEB
1 35924U 97051UH  13295.78833195  .00536485  00000-0  28444-1 0  3223
2 35924 086.3920 113.5551 0014423 016.9420 343.2297 15.13116178223113
